{"type": "FeatureCollection", "features": [ {"type": "Feature", "properties": {"norad_id": 40115, "name": "WORLDVIEW-3 (WV-3)", "group": "resource", "lat": 38.70012293202406, "lon": -115.89440380152575, "alt_km": 606.9674683862831, "timestamp": "2025-12-11T10:53:15.541992+00:00", "meta": {"OBJECT_NAME": "WORLDVIEW-3 (WV-3)", "OBJECT_ID": "2014-048A", "EPOCH": "2025-12-11T05:24:21.657024", "MEAN_MOTION": 14.85505154, "ECCENTRICITY": 0.0004633, "INCLINATION": 97.8617, "RA_OF_ASC_NODE": 57.5245, "ARG_OF_PERICENTER": 189.864, "MEAN_ANOMALY": 170.2485, "EPHEMERIS_TYPE": 0, "CLASSIFICATION_TYPE": "U", "NORAD_CAT_ID": 40115, "ELEMENT_SET_NO": 999, "REV_AT_EPOCH": 61401, "BSTAR": 0.00020746, "MEAN_MOTION_DOT": 1.738e-05, "MEAN_MOTION_DDOT": 0}, "tle": {"line1": "1 40115U 14048A   25345.22525066  .00001738  00000+0  20746-3 0  9995", "line2": "2 40115  97.8617  57.5245 0004633 189.8640 170.2485 14.85505154614018"}}, "geometry": {"type": "Point", "coordinates": [-115.89440380152575, 38.70012293202406]}}, {"type": "Feature", "properties": {"norad_id": 40118, "name": "GAOFEN-2", "group": "resource", "lat": -19.1350393881241, "lon": 47.42967627996769, "alt_km": 636.8133094041623, "timestamp": "2025-12-11T10:53:15.542004+00:00", "meta": {"OBJECT_NAME": "GAOFEN-2", "OBJECT_ID": "2014-049A", "EPOCH": "2025-12-11T04:29:13.437312", "MEAN_MOTION": 14.80602867, "ECCENTRICITY": 0.0008496, "INCLINATION": 98.0382, "RA_OF_ASC_NODE": 44.3521, "ARG_OF_PERICENTER": 117.3662, "MEAN_ANOMALY": 242.8415, "EPHEMERIS_TYPE": 0, "CLASSIFICATION_TYPE": "U", "NORAD_CAT_ID": 40118, "ELEMENT_SET_NO": 999, "REV_AT_EPOCH": 61141, "BSTAR": 0.00014057, "MEAN_MOTION_DOT": 1.025e-05, "MEAN_MOTION_DDOT": 0}, "tle": {"line1": "1 40118U 14049A   25345.18696108  .00001025  00000+0  14057-3 0  9997", "line2": "2 40118  98.0382  44.3521 0008496 117.3662 242.8415 14.80602867611419"}}, "geometry": {"type": "Point", "coordinates": [47.42967627996769, -19.1350393881241]}}, {"type": "Feature", "properties": {"norad_id": 40143, "name": "YAOGAN-21", "group": "resource", "lat": 72.9843339166372, "lon": -126.86758251321807, "alt_km": 484.4261447674917, "timestamp": "2025-12-11T10:53:15.542015+00:00", "meta": {"OBJECT_NAME": "YAOGAN-21", "OBJECT_ID": "2014-053A", "EPOCH": "2025-12-11T04:07:21.431712", "MEAN_MOTION": 15.23647736, "ECCENTRICITY": 0.0009842, "INCLINATION": 97.1757, "RA_OF_ASC_NODE": 28.5523, "ARG_OF_PERICENTER": 46.8703, "MEAN_ANOMALY": 313.3356, "EPHEMERIS_TYPE": 0, "CLASSIFICATION_TYPE": "U", "NORAD_CAT_ID": 40143, "ELEMENT_SET_NO": 999, "REV_AT_EPOCH": 62630, "BSTAR": 0.00033325, "MEAN_MOTION_DOT": 7.933e-05, "MEAN_MOTION_DDOT": 0}, "tle": {"line1": "1 40143U 14053A   25345.17177583  .00007933  00000+0  33325-3 0  9993", "line2": "2 40143  97.1757  28.5523 0009842  46.8703 313.3356 15.23647736626301"}}, "geometry": {"type": "Point", "coordinates": [-126.86758251321807, 72.9843339166372]}}, {"type": "Feature", "properties": {"norad_id": 40275, "name": "YAOGAN-22", "group": "resource", "lat": -2.3831394741702616, "lon": -51.59785284858013, "alt_km": 1203.2720935691614, "timestamp": "2025-12-11T10:53:15.542030+00:00", "meta": {"OBJECT_NAME": "YAOGAN-22", "OBJECT_ID": "2014-063A", "EPOCH": "2025-12-11T02:39:44.143776", "MEAN_MOTION": 13.15522591, "ECCENTRICITY": 0.0005946, "INCLINATION": 100.742, "RA_OF_ASC_NODE": 128.5074, "ARG_OF_PERICENTER": 252.2554, "MEAN_ANOMALY": 107.7909, "EPHEMERIS_TYPE": 0, "CLASSIFICATION_TYPE": "U", "NORAD_CAT_ID": 40275, "ELEMENT_SET_NO": 999, "REV_AT_EPOCH": 53508, "BSTAR": 7.3202e-05, "MEAN_MOTION_DOT": -1.9e-07, "MEAN_MOTION_DDOT": 0}, "tle": {"line1": "1 40275U 14063A   25345.11092759 -.00000019  00000+0  73202-4 0  9993", "line2": "2 40275 100.7420 128.5074 0005946 252.2554 107.7909 13.15522591535088"}}, "geometry": {"type": "Point", "coordinates": [-51.59785284858013, -2.3831394741702616]}}, {"type": "Feature", "properties": {"norad_id": 40298, "name": "ASNARO", "group": "resource", "lat": 7.251238466359615, "lon": -117.62607478895355, "alt_km": 507.0684729380846, "timestamp": "2025-12-11T10:53:15.542042+00:00", "meta": {"OBJECT_NAME": "ASNARO", "OBJECT_ID": "2014-070A", "EPOCH": "2025-12-11T05:23:21.738624", "MEAN_MOTION": 15.19442368, "ECCENTRICITY": 0.0005353, "INCLINATION": 97.3648, "RA_OF_ASC_NODE": 61.2075, "ARG_OF_PERICENTER": 126.6394, "MEAN_ANOMALY": 233.5334, "EPHEMERIS_TYPE": 0, "CLASSIFICATION_TYPE": "U", "NORAD_CAT_ID": 40298, "ELEMENT_SET_NO": 999, "REV_AT_EPOCH": 61546, "BSTAR": 0.00079251, "MEAN_MOTION_DOT": 0.0001676, "MEAN_MOTION_DDOT": 0}, "tle": {"line1": "1 40298U 14070A   25345.22455716  .00016760  00000+0  79251-3 0  9992", "line2": "2 40298  97.3648  61.2075 0005353 126.6394 233.5334 15.19442368615468"}}, "geometry": {"type": "Point", "coordinates": [-117.62607478895355, 7.251238466359615]}}, {"type": "Feature", "properties": {"norad_id": 40310, "name": "YAOGAN-24", "group": "resource", "lat": -14.982531230137388, "lon": 118.72994618475116, "alt_km": 655.6440147996627, "timestamp": "2025-12-11T10:53:15.542053+00:00", "meta": {"OBJECT_NAME": "YAOGAN-24", "OBJECT_ID": "2014-072A", "EPOCH": "2025-12-11T04:26:56.350752", "MEAN_MOTION": 14.76170119, "ECCENTRICITY": 0.0014678, "INCLINATION": 98.1224, "RA_OF_ASC_NODE": 116.2699, "ARG_OF_PERICENTER": 142.6736, "MEAN_ANOMALY": 217.5495, "EPHEMERIS_TYPE": 0, "CLASSIFICATION_TYPE": "U", "NORAD_CAT_ID": 40310, "ELEMENT_SET_NO": 999, "REV_AT_EPOCH": 59598, "BSTAR": 0.000177, "MEAN_MOTION_DOT": 1.173e-05, "MEAN_MOTION_DDOT": 0}, "tle": {"line1": "1 40310U 14072A   25345.18537443  .00001173  00000+0  17700-3 0  9995", "line2": "2 40310  98.1224 116.2699 0014678 142.6736 217.5495 14.76170119595981"}}, "geometry": {"type": "Point", "coordinates": [118.72994618475116, -14.982531230137388]}}, {"type": "Feature", "properties": {"norad_id": 40336, "name": "CBERS 4", "group": "resource", "lat": -80.95109654933206, "lon": 110.44537786911367, "alt_km": 781.7831115842437, "timestamp": "2025-12-11T10:53:15.542063+00:00", "meta": {"OBJECT_NAME": "CBERS 4", "OBJECT_ID": "2014-079A", "EPOCH": "2025-12-11T04:35:55.356288", "MEAN_MOTION": 14.35516596, "ECCENTRICITY": 0.0001628, "INCLINATION": 98.3306, "RA_OF_ASC_NODE": 43.2611, "ARG_OF_PERICENTER": 114.6058, "MEAN_ANOMALY": 245.5298, "EPHEMERIS_TYPE": 0, "CLASSIFICATION_TYPE": "U", "NORAD_CAT_ID": 40336, "ELEMENT_SET_NO": 999, "REV_AT_EPOCH": 57698, "BSTAR": 6.6555e-05, "MEAN_MOTION_DOT": 1.49e-06, "MEAN_MOTION_DDOT": 0}, "tle": {"line1": "1 40336U 14079A   25345.19161292  .00000149  00000+0  66555-4 0  9991", "line2": "2 40336  98.3306  43.2611 0001628 114.6058 245.5298 14.35516596576981"}}, "geometry": {"type": "Point", "coordinates": [110.44537786911367, -80.95109654933206]}}, {"type": "Feature", "properties": {"norad_id": 40362, "name": "YAOGAN-26", "group": "resource", "lat": 70.58940661800237, "lon": -173.21950394689756, "alt_km": 440.4562575995642, "timestamp": "2025-12-11T10:53:15.542074+00:00", "meta": {"OBJECT_NAME": "YAOGAN-26", "OBJECT_ID": "2014-088A", "EPOCH": "2025-12-11T04:10:45.138720", "MEAN_MOTION": 15.39211124, "ECCENTRICITY": 0.0006479, "INCLINATION": 97.0646, "RA_OF_ASC_NODE": 345.9038, "ARG_OF_PERICENTER": 34.0246, "MEAN_ANOMALY": 326.1415, "EPHEMERIS_TYPE": 0, "CLASSIFICATION_TYPE": "U", "NORAD_CAT_ID": 40362, "ELEMENT_SET_NO": 999, "REV_AT_EPOCH": 60870, "BSTAR": 0.00078195, "MEAN_MOTION_DOT": 0.00030425, "MEAN_MOTION_DDOT": 0}, "tle": {"line1": "1 40362U 14088A   25345.17413355  .00030425  00000+0  78195-3 0  9990", "line2": "2 40362  97.0646 345.9038 0006479  34.0246 326.1415 15.39211124608708"}}, "geometry": {"type": "Point", "coordinates": [-173.21950394689756, 70.58940661800237]}}, {"type": "Feature", "properties": {"norad_id": 40376, "name": "SMAP", "group": "resource", "lat": -12.30078783455705, "lon": -8.01792078217272, "alt_km": 687.0017996010283, "timestamp": "2025-12-11T10:53:15.542084+00:00", "meta": {"OBJECT_NAME": "SMAP", "OBJECT_ID": "2015-003A", "EPOCH": "2025-12-11T04:22:48.234144", "MEAN_MOTION": 14.63341741, "ECCENTRICITY": 0.0001201, "INCLINATION": 98.1292, "RA_OF_ASC_NODE": 349.9288, "ARG_OF_PERICENTER": 89.0447, "MEAN_ANOMALY": 271.0892, "EPHEMERIS_TYPE": 0, "CLASSIFICATION_TYPE": "U", "NORAD_CAT_ID": 40376, "ELEMENT_SET_NO": 999, "REV_AT_EPOCH": 58012, "BSTAR": 0.00018056, "MEAN_MOTION_DOT": 8.85e-06, "MEAN_MOTION_DDOT": 0}, "tle": {"line1": "1 40376U 15003A   25345.18250271  .00000885  00000+0  18056-3 0  9997", "line2": "2 40376  98.1292 349.9288 0001201  89.0447 271.0892 14.63341741580121"}}, "geometry": {"type": "Point", "coordinates": [-8.01792078217272, -12.30078783455705]}}, {"type": "Feature", "properties": {"norad_id": 40536, "name": "KOMPSAT-3A", "group": "resource", "lat": 26.56282364880747, "lon": -44.13904666755013, "alt_km": 434.5669001865399, "timestamp": "2025-12-11T10:53:15.542095+00:00", "meta": {"OBJECT_NAME": "KOMPSAT-3A", "OBJECT_ID": "2015-014A", "EPOCH": "2025-12-11T04:32:58.454880", "MEAN_MOTION": 15.43853225, "ECCENTRICITY": 0.0004781, "INCLINATION": 97.6791, "RA_OF_ASC_NODE": 319.4503, "ARG_OF_PERICENTER": 130.9421, "MEAN_ANOMALY": 229.224, "EPHEMERIS_TYPE": 0, "CLASSIFICATION_TYPE": "U", "NORAD_CAT_ID": 40536, "ELEMENT_SET_NO": 999, "REV_AT_EPOCH": 59271, "BSTAR": 0.00062487, "MEAN_MOTION_DOT": 0.00028323, "MEAN_MOTION_DDOT": 0}, "tle": {"line1": "1 40536U 15014A   25345.18956545  .00028323  00000+0  62487-3 0  9998", "line2": "2 40536  97.6791 319.4503 0004781 130.9421 229.2240 15.43853225592717"}}, "geometry": {"type": "Point", "coordinates": [-44.13904666755013, 26.56282364880747]}}]}